P/2011 W1 (PANSTARRS),e,3.7164,161.7362,283.1988,4.676952,0.0974450,0.28805589,157.3136,07/13.0/2026,2000,g 11.5,4.0
# From MPC194126
P/2011 Y2 (Boattini),e,6.3942,309.2709,132.1545,6.223363,0.0634843,0.71106688,331.6493,07/13.0/2026,2000,g 15.0,4.0
# From MPC194126
C/2012 A1 (PANSTARRS),e,121.0154,277.8600,191.9867,13982,0.0000006,0.99945464,0.0000,11/28.9312/2013,2000,g  6.0,4.0
# From unp
P/2012 A3 (SOHO),e,11.0130,174.5492,219.8354,2.584403,0.2372268,0.76992627,175.4181,07/13.0/2026,2000,g 17.0,4.0
# From MPC194127
P/2012 B1 (PANSTARRS),e,7.6053,36.2097,161.8384,6.546023,0.0588488,0.41074851,281.5758,07/13.0/2026,2000,g  9.0,4.0
# From MPC194127
P/2012 F2 (PANSTARRS),e,14.6902,226.7649,33.3561,6.351970,0.0615661,0.54224081,299.7915,07/13.0/2026,2000,g 12.0,4.0
# From MPC194128
P/2012 G1 (PANSTARRS),e,12.1690,283.2250,266.0262,4.160893,0.1161246,0.33014287,245.3024,07/13.0/2026,2000,g 15.0,4.0
# From MPC194128
C/2012 K1 (PANSTARRS),e,142.6776,317.7936,203.2099,13443,0.0000006,0.99992061,0.0000,08/22.6602/2014,2000,g  5.6,3.2
# From MPEC 2026-N12
P/2012 K3 (Gibbs),e,13.1788,125.8016,172.0997,3.634399,0.1422509,0.42185533,359.5823,07/13.0/2026,2000,g 15.0,4.0
# From MPC194128
C/2012 K8 (Lemmon),h,08/20.2454/2014,105.9521,312.7242,75.8644,1.000798,6.457643,2000,6.0,4.0
# From MPC194129
C/2012 LP26 (Palomar),h,08/12.1432/2015,25.3617,154.1131,145.2523,1.001093,6.565498,2000,6.5,4.0
# From MPC194129
P/2012 O1 (McNaught),e,7.4228,91.8929,238.3300,3.543133,0.1477824,0.59351246,37.3925,07/13.0/2026,2000,g 17.5,4.0
# From MPC194129
P/2012 O2 (McNaught),e,24.4473,120.6530,183.3921,3.630687,0.1424691,0.53129503,14.6230,07/13.0/2026,2000,g 17.0,4.0
# From MPC194129
C/2012 Q1 (Kowalski),e,45.1755,184.4461,139.4792,26.19435,0.0073518,0.63597502,38.7710,07/13.0/2026,2000,g  4.0,4.0
# From MPC194129
P/2012 T3 (PANSTARRS),e,9.5202,114.1401,196.8204,6.026602,0.0666186,0.60517352,345.8606,07/13.0/2026,2000,g 15.0,4.0
# From MPC194130
C/2012 X1 (LINEAR),e,44.2685,113.4769,131.9832,158.2956,0.0004949,0.98983362,0.0000,02/15.9232/2014,2000,g  4.8,3.6
# From MPC194130
C/2013 A1 (SidingSpring),h,10/27.1460/2014,128.6863,301.1844,2.5471,1.000109,1.392051,2000,8.2,2.4
# From MPC194131
C/2013 C2 (Tenagra),e,21.3688,247.5639,308.7472,15.87556,0.0155816,0.42624658,61.8423,07/13.0/2026,2000,g  4.0,4.0
# From MPEC 2013-Y32
P/2013 CU129 (PANSTARRS),e,11.8101,45.5832,213.0228,2.905080,0.1990522,0.71531159,230.8917,07/13.0/2026,2000,g 18.0,2.0
# From MPC194131
C/2013 E1 (McNaught),e,158.7085,133.8750,311.3157,6414,0.0000019,0.99878850,0.0000,06/09.0649/2013,2000,g  5.5,4.0
# From MPC194131
P/2013 G1 (Kowalski),e,5.4558,221.2582,51.2960,6.911988,0.0542375,0.51042465,250.8701,07/13.0/2026,2000,g 11.0,4.0
# From MPC194132
P/2013 J2 (McNaught),e,15.4891,289.2260,37.8546,6.234683,0.0633115,0.65565043,298.2973,07/13.0/2026,2000,g 13.0,4.0
# From MPC194133
C/2013 P3 (Palomar),h,11/24.9413/2014,93.8417,177.3213,177.3956,1.002026,8.684889,2000,5.5,4.0
# From MPC194133
C/2013 P4 (PANSTARRS),e,4.2603,256.3877,114.0058,14.78238,0.0173415,0.59363821,75.5569,07/13.0/2026,2000,g  7.5,4.0
# From MPC194134
P/2013 R3 (Catalina-PANSTARRS),e,0.8670,341.6496,11.3643,3.028027,0.1870529,0.27898794,157.8005,07/13.0/2026,2000,g 14.0,4.0
# From MPC194134
P/2013 R3-A,e,0.8659,341.5964,11.4504,3.027778,0.1870760,0.27891254,157.8911,07/13.0/2026,2000,g 14.3,4.0
# From MPC194134
P/2013 R3-B,e,0.8677,341.6639,11.3972,3.028024,0.1870531,0.27893022,157.7770,07/13.0/2026,2000,g 14.5,4.0
# From MPC194134
P/2013 T1 (PANSTARRS),e,24.2671,10.0344,346.1830,5.857696,0.0695206,0.62337466,328.1917,07/13.0/2026,2000,g 16.5,4.0
# From MPC194134
P/2013 T2 (Schwartz),e,9.4472,0.7758,345.5785,3.493276,0.1509575,0.50004328,4.7839,07/13.0/2026,2000,g 16.0,4.0
# From MPC194135
C/2013 US10 (Catalina),h,11/11.8767/2015,148.9360,186.1386,340.1933,1.000156,0.815244,2000,4.4,4.0
# From MPC194135
C/2013 V4 (Catalina),h,10/10.4776/2015,67.9536,55.5467,40.4848,1.000561,5.186830,2000,6.0,4.0
# From MPC194135
P/2013 W1 (PANSTARRS),e,4.7009,117.8446,1.2788,3.483236,0.1516107,0.59394080,322.6795,07/13.0/2026,2000,g 17.5,4.0
# From MPC194135
C/2013 W2 (PANSTARRS),e,4.8500,178.2704,303.9128,9.615009,0.0330582,0.54783815,140.2402,07/13.0/2026,2000,g 13.5,2.0
# From MPC194135
C/2013 X1 (PANSTARRS),h,04/24.3837/2016,163.0537,132.0356,165.4767,1.000905,1.305525,2000,10.5,2.0
# From MPC194136
P/2013 YG46 (Spacewatch),e,7.0380,36.0796,256.0556,3.239916,0.1690065,0.47994244,210.3182,07/13.0/2026,2000,g 10.0,4.0
# From MPC194136
P/2014 A2 (Hill),e,24.5643,106.6412,356.2679,5.916787,0.0684818,0.64662849,318.1990,07/13.0/2026,2000,g 15.0,4.0
# From MPC194136
C/2014 A4 (SONEAR),h,09/05.4064/2015,121.3425,29.6788,356.9344,1.000005,4.208039,2000,6.0,4.0
# From MPC194136
C/2014 B1 (Schwartz),h,09/10.3598/2017,28.3823,161.2821,345.7911,1.000854,9.539299,2000,4.0,4.0
# From MPC194136
P/2014 C1 (TOTAS),e,3.1905,39.4720,187.8398,4.045603,0.1211237,0.33849937,272.6226,07/13.0/2026,2000,g 15.5,4.0
# From MPC194137
C/2014 F3 (Sheppard-Trujillo),e,6.5207,325.9906,5.0621,14.35342,0.0181247,0.60066430,33.9703,07/13.0/2026,2000,g  6.0,4.0
# From MPC194137
P/2014 L2 (NEOWISE),e,5.1857,149.3011,182.6631,6.317107,0.0620764,0.64580690,272.2509,07/13.0/2026,2000,g 12.0,4.0
# From MPC194138
C/2014 M2 (Christensen),e,32.3398,245.3731,40.8509,1286,0.0000214,0.99461014,0.0000,07/13.2084/2014,2000,g  6.0,4.0
# From MPC194138
P/2014 O3 (PANSTARRS),e,7.7889,87.6234,204.4739,7.589969,0.0471351,0.38249165,211.7868,07/13.0/2026,2000,g 10.5,4.0
# From MPC194138
C/2014 OE4 (PANSTARRS),e,81.2826,240.4518,65.8735,21686,0.0000003,0.99971100,0.0000,12/05.2592/2016,2000,g 11.0,2.0
# From MPC191585
C/2014 OG392 (PANSTARRS),e,9.0317,145.8331,255.5829,12.24985,0.0229884,0.18428111,37.7931,07/13.0/2026,2000,g  6.0,4.0
# From MPC194139
C/2014 R3 (PANSTARRS),h,08/08.6283/2016,90.7586,333.9816,113.3658,1.000043,7.265079,2000,6.5,4.0
# From MPC194139
P/2014 U4 (PANSTARRS),e,6.4207,11.8857,347.8368,3.513652,0.1496463,0.46340381,295.9616,07/13.0/2026,2000,g 18.0,4.0
# From MPEC 2026-N12
C/2014 UN271 (Bernardinelli-Bernstein),h,01/16.4968/2031,95.4461,190.0006,326.0882,1.004150,10.959766,2000,2.5,3.2
# From MPC194139
P/2014 V1 (PANSTARRS),e,22.4894,166.1893,177.9758,5.363398,0.0793495,0.52426366,332.1246,07/13.0/2026,2000,g 14.0,4.0
# From MPC194140
P/2014 W4 (PANSTARRS),e,15.2787,33.3042,67.8176,6.578013,0.0584201,0.35520815,224.0318,07/13.0/2026,2000,g 11.0,4.0
# From MPC194141
P/2015 B1 (PANSTARRS),e,18.1014,352.8350,188.6570,9.469484,0.0338232,0.36756835,133.9299,07/13.0/2026,2000,g  8.5,4.0
# From MPC194142
C/2015 D2 (PANSTARRS),e,31.9083,162.6810,292.4244,12.80344,0.0215136,0.56178354,100.3327,07/13.0/2026,2000,g  8.0,4.0
# From MPC194142
C/2015 D3 (PANSTARRS),e,128.5737,156.8760,2.6624,16928,0.0000004,0.99951912,0.0000,04/25.2238/2016,2000,g  5.5,4.0
# From MPC194142
P/2015 D5 (Kowalski),e,20.5411,74.0697,39.7040,8.944181,0.0368462,0.49198519,164.8060,07/13.0/2026,2000,g  9.0,4.0
# From MPC194142
P/2015 D6 (Lemmon-PANSTARRS),e,20.3904,45.1431,126.1155,7.116263,0.0519190,0.36326190,209.0332,07/13.0/2026,2000,g 10.5,4.0
# From MPC194142
C/2015 ER61 (PANSTARRS),e,6.3142,235.0042,68.7073,458.7990,0.0001003,0.99768405,0.0000,05/04.7591/2017,2000,g 11.0,2.0
# From MPC194144
P/2015 M2 (PANSTARRS),e,3.9675,86.5670,225.5185,7.255361,0.0504331,0.17791672,200.6695,07/13.0/2026,2000,g  8.5,4.0
# From MPEC 2021-P47
C/2015 O1 (PANSTARRS),h,02/17.3274/2018,27.1033,299.7013,89.8731,1.001657,3.750686,2000,6.5,4.0
# From MPC194144
P/2015 PD229 (Cameron-ISON),e,2.0188,342.7079,352.6066,7.211720,0.0508916,0.32444800,203.4574,07/13.0/2026,2000,g 11.5,2.0
# From MPC194144
P/2015 R2 (PANSTARRS),e,15.5700,168.5596,149.7850,4.494651,0.1034332,0.45242266,57.5370,07/13.0/2026,2000,g 14.5,4.0
# From MPC194145
C/2015 T5 (Sheppard-Tholen),e,11.0172,311.1715,62.2822,28.40275,0.0065112,0.66940526,24.8629,07/13.0/2026,2000,g  7.5,4.0
# From MPC194145
P/2015 TP200 (LINEAR),e,8.7720,6.8528,82.6979,7.264544,0.0503375,0.53706954,178.0581,07/13.0/2026,2000,g 11.0,4.0
# From MPC194145
C/2015 V1 (PANSTARRS),e,139.1698,197.2943,179.9615,34328,0.0000002,0.99987510,0.0000,12/19.3687/2017,2000,g  6.5,4.0
# From MPEC 2026-L50
C/2015 V2 (Johnson),h,06/09.4302/2017,49.7747,70.0622,164.6822,1.000826,1.631421,2000,5.0,4.0
# From MPC194145
C/2015 V4 (PANSTARRS),e,60.7556,179.7896,306.8048,18.44703,0.0124398,0.70547395,44.8203,07/13.0/2026,2000,g  8.5,4.0
# From MPC194146
C/2015 XY1 (Lemmon),h,04/27.4942/2018,148.8560,281.5099,196.3668,1.000517,7.959025,2000,5.5,4.0
# From MPC194146
P/2015 X3 (PANSTARRS),e,24.4207,77.2462,307.0095,4.994016,0.0883139,0.43946015,350.9222,07/13.0/2026,2000,g 15.0,4.0
# From MPC194146
C/2015 X5 (PANSTARRS),h,12/28.0139/2017,124.3815,122.1939,27.6976,1.000053,6.820769,2000,7.5,4.0
# From MPC194146
P/2015 X6 (PANSTARRS),e,4.5666,106.9216,329.4586,2.751355,0.2159654,0.17398364,92.4919,07/13.0/2026,2000,g 16.0,4.0
# From MPC194147
C/2016 A1 (PANSTARRS),e,121.2877,128.0179,10.1870,7904,0.0000014,0.99932441,0.0000,11/19.5832/2017,2000,g  6.0,4.0
# From MPC194147
P/2016 A3 (PANSTARRS),e,8.5283,187.0923,340.8418,7.864737,0.0446866,0.38768454,150.2226,07/13.0/2026,2000,g 10.0,4.0
# From MPC194147
P/2016 A7 (PANSTARRS),e,16.1074,219.7552,353.2598,5.082599,0.0860152,0.56843468,332.5500,07/13.0/2026,2000,g 16.0,4.0
# From MPC194147
C/2016 C1 (PANSTARRS),h,02/18.7442/2016,56.1994,181.6971,328.5653,1.001799,8.432347,2000,5.5,4.0
# From MPC194147
C/2016 E1 (PANSTARRS),h,05/26.9413/2017,131.8850,233.1282,47.2304,1.001266,8.163643,2000,6.5,4.0
# From MPC194148
P/2016 G1 (PANSTARRS),e,10.9697,204.0051,111.1105,2.583515,0.2373490,0.20977884,100.3688,07/13.0/2026,2000,g 14.0,4.0
# From MPC194148
C/2016 M1 (PANSTARRS),e,90.7555,92.2946,209.8247,1942,0.0000115,0.99886145,0.0000,08/07.3408/2018,2000,g  5.0,4.0
# From MPC194148
C/2016 N6 (PANSTARRS),e,105.9433,298.7229,162.7050,1043,0.0000293,0.99743345,0.0000,07/16.0256/2018,2000,g  7.0,4.0
# From MPC194148
